NORAD_CAT_ID,OBJECT_NAME,OBJECT_TYPE,EPOCH,MEAN_MOTION,ECCENTRICITY,INCLINATION,RA_OF_ASC_NODE,ARG_OF_PERICENTER,MEAN_ANOMALY,BSTAR,MEAN_MOTION_DOT,MEAN_MOTION_DDOT,TLE_LINE0,TLE_LINE1,TLE_LINE2,SEMIMAJOR_AXIS,PERIOD,APOGEE,PERIGEE,DECAYED
52454.0,STARLINK-3888,PAYLOAD,2023-12-02 20:09:21,15.0884075,0.0001575,53.2163,185.4835,61.4498,298.6653,0.00012685,1.731e-05,0.0,0 STARLINK-3888,1 52454U 22049D   23336.83983092  .00001731  00000-0  12685-3 0  9993,2 52454  53.2163 185.4835 0001575  61.4498 298.6653 15.08840750 87299,6917.878,95.438,540.833,538.654,0.0
52454.0,STARLINK-3888,PAYLOAD,2023-12-02 21:44:44,15.08842557,0.0002107,53.2159,185.188,54.5055,305.6133,0.00017749,2.538e-05,0.0,0 STARLINK-3888,1 52454U 22049D   23336.90607150  .00002538  00000-0  17749-3 0  9991,2 52454  53.2159 185.1880 0002107  54.5055 305.6133 15.08842557 87148,6917.873,95.437,541.195,538.28,0.0
52454.0,STARLINK-3888,PAYLOAD,2023-12-03 13:38:36,15.08828794,0.0001608,53.214,182.2173,79.3885,280.7288,0.00014374,2e-05,0.0,0 STARLINK-3888,1 52454U 22049D   23337.56848166  .00002000  00000-0  14374-3 0  9993,2 52454  53.2140 182.2173 0001608  79.3885 280.7288 15.08828794 87244,6917.915,95.438,540.892,538.667,0.0
52454.0,STARLINK-3888,PAYLOAD,2023-12-03 20:00:09,15.08825372,0.0001387,53.2157,181.0211,95.5169,264.5981,4.2253e-05,3.84e-06,0.0,0 STARLINK-3888,1 52454U 22049D   23337.83344524  .00000384  00000-0  42253-4 0  9993,2 52454  53.2157 181.0211 0001387  95.5169 264.5981 15.08825372 87442,6917.925,95.438,540.75,538.831,0.0
52454.0,STARLINK-3888,PAYLOAD,2023-12-04 23:01:43,15.08828986,0.0001498,53.2169,175.9663,122.7462,237.3675,2.3765e-05,9e-07,0.0,0 STARLINK-3888,1 52454U 22049D   23338.95953269  .00000090  00000-0  23765-4 0  9990,2 52454  53.2169 175.9663 0001498 122.7462 237.3675 15.08828986 87611,6917.914,95.438,540.815,538.743,0.0
52454.0,STARLINK-3888,PAYLOAD,2023-12-05 13:20:12,15.08832699,0.0001082,53.2168,173.2917,87.2062,272.9054,0.00024756,3.654e-05,0.0,0 STARLINK-3888,1 52454U 22049D   23339.55569690  .00003654  00000-0  24756-3 0  9997,2 52454  53.2168 173.2917 0001082  87.2062 272.9054 15.08832699 87547,6917.903,95.438,540.516,539.019,0.0
52454.0,STARLINK-3888,PAYLOAD,2023-12-06 13:10:58,15.08846888,0.0001211,53.2159,168.8311,86.1073,274.0058,0.00028837,4.305e-05,0.0,0 STARLINK-3888,1 52454U 22049D   23340.54929053  .00004305  00000-0  28837-3 0  9999,2 52454  53.2159 168.8311 0001211  86.1073 274.0058 15.08846888 87697,6917.859,95.437,540.562,538.887,0.0
52454.0,STARLINK-3888,PAYLOAD,2023-12-07 13:01:44,15.08852186,0.0001244,53.2158,164.3708,82.747,277.3663,0.00017849,2.555e-05,0.0,0 STARLINK-3888,1 52454U 22049D   23341.54288178  .00002555  00000-0  17849-3 0  9992,2 52454  53.2158 164.3708 0001244  82.7470 277.3663 15.08852186 87849,6917.843,95.437,540.569,538.848,0.0
52454.0,STARLINK-3888,PAYLOAD,2023-12-08 22:24:50,15.08846536,0.000118,53.2161,158.1262,85.7451,274.3676,-1.7559e-05,-5.67e-06,0.0,0 STARLINK-3888,1 52454U 22049D   23342.93391539 -.00000567  00000-0 -17559-4 0  9994,2 52454  53.2161 158.1262 0001180  85.7451 274.3676 15.08846536 88215,6917.86,95.437,540.542,538.909,0.0
52454.0,STARLINK-3888,PAYLOAD,2023-12-09 14:18:41,15.08840157,0.0001186,53.2155,155.1512,87.0014,273.1114,-7.3727e-05,-1.461e-05,0.0,0 STARLINK-3888,1 52454U 22049D   23343.59631744 -.00001461  00000-0 -73727-4 0  9995,2 52454  53.2155 155.1512 0001186  87.0014 273.1114 15.08840157 88317,6917.88,95.438,540.565,538.924,0.0
52454.0,STARLINK-3888,PAYLOAD,2023-12-09 20:40:14,15.08839979,0.000155,53.2143,153.9618,87.2875,272.8295,-4.5251e-05,-1.008e-05,0.0,0 STARLINK-3888,1 52454U 22049D   23343.86127841 -.00001008  00000-0 -45251-4 0  9991,2 52454  53.2143 153.9618 0001550  87.2875 272.8295 15.08839979 88191,6917.88,95.438,540.818,538.673,0.0
52454.0,STARLINK-3888,PAYLOAD,2023-12-10 10:58:42,15.08840708,0.0001466,53.2146,151.2849,90.2832,269.8328,1.8139e-05,1e-08,0.0,0 STARLINK-3888,1 52454U 22049D   23344.45743841  .00000001  00000-0  18139-4 0  9996,2 52454  53.2146 151.2849 0001466  90.2832 269.8328 15.08840708 88289,6917.878,95.438,540.757,538.729,0.0
52454.0,STARLINK-3888,PAYLOAD,2023-12-10 18:55:38,15.08842384,0.0001366,53.216,149.7997,84.3814,275.7333,0.00014969,2.095e-05,0.0,0 STARLINK-3888,1 52454U 22049D   23344.78863784  .00002095  00000-0  14969-3 0  9992,2 52454  53.2160 149.7997 0001366  84.3814 275.7333 15.08842384 88491,6917.873,95.437,540.683,538.793,0.0
52454.0,STARLINK-3888,PAYLOAD,2023-12-11 17:11:02,15.08842928,0.0001396,53.2162,145.6368,82.9017,277.2133,0.0001116,1.489e-05,0.0,0 STARLINK-3888,1 52454U 22049D   23345.71599890  .00001489  00000-0  11160-3 0  9996,2 52454  53.2162 145.6368 0001396  82.9017 277.2133 15.08842928 88479,6917.871,95.437,540.702,538.771,0.0
52454.0,STARLINK-3888,PAYLOAD,2023-12-12 13:51:03,15.08843149,0.0001405,53.2164,141.771,83.3608,276.7544,6.0806e-05,6.8e-06,0.0,0 STARLINK-3888,1 52454U 22049D   23346.57711938  .00000680  00000-0  60806-4 0  9994,2 52454  53.2164 141.7710 0001405  83.3608 276.7544 15.08843149 88602,6917.871,95.437,540.708,538.764,0.0
52454.0,STARLINK-3888,PAYLOAD,2023-12-12 17:01:49,15.08842618,0.0001343,53.2163,141.176,87.4626,272.652,4.7587e-05,4.7e-06,0.0,0 STARLINK-3888,1 52454U 22049D   23346.70959916  .00000470  00000-0  47587-4 0  9997,2 52454  53.2163 141.1760 0001343  87.4626 272.6520 15.08842618 88627,6917.872,95.437,540.666,538.808,0.0
52454.0,STARLINK-3888,PAYLOAD,2023-12-13 13:41:50,15.08841639,0.000141,53.2168,137.3131,102.1339,257.9811,7.6362e-05,9.28e-06,0.0,0 STARLINK-3888,1 52454U 22049D   23347.57071780  .00000928  00000-0  76362-4 0  9998,2 52454  53.2168 137.3131 0001410 102.1339 257.9811 15.08841639 88757,6917.875,95.437,540.716,538.765,0.0
52454.0,STARLINK-3888,PAYLOAD,2023-12-13 15:17:13,15.08842279,0.0001414,53.2171,137.0139,103.0111,257.1039,7.7705e-05,9.49e-06,0.0,0 STARLINK-3888,1 52454U 22049D   23347.63695705  .00000949  00000-0  77705-4 0  9999,2 52454  53.2171 137.0139 0001414 103.0111 257.1039 15.08842279 88764,6917.873,95.437,540.717,538.76,0.0
52454.0,STARLINK-3888,PAYLOAD,2023-12-14 13:32:37,15.08839395,0.0001359,53.2171,132.8507,103.7715,256.3428,6.1005e-05,6.83e-06,0.0,0 STARLINK-3888,1 52454U 22049D   23348.56431988  .00000683  00000-0  61005-4 0  9994,2 52454  53.2171 132.8507 0001359 103.7715 256.3428 15.08839395 88905,6917.882,95.438,540.687,538.807,0.0
52454.0,STARLINK-3888,PAYLOAD,2023-12-14 16:43:23,15.08842006,0.0001376,53.2171,132.2559,102.4585,257.6561,8.0914e-05,1e-05,0.0,0 STARLINK-3888,1 52454U 22049D   23348.69679763  .00001000  00000-0  80914-4 0  9997,2 52454  53.2171 132.2559 0001376 102.4585 257.6561 15.08842006 89081,6917.874,95.437,540.691,538.787,0.0
52454.0,STARLINK-3888,PAYLOAD,2023-12-15 13:23:24,15.08832063,0.0001494,53.2169,128.3853,107.7914,252.3241,1.5509e-05,-4.1e-07,0.0,0 STARLINK-3888,1 52454U 22049D   23349.55792820 -.00000041  00000-0  15509-4 0  9996,2 52454  53.2169 128.3853 0001494 107.7914 252.3241 15.08832063 89052,6917.905,95.438,540.803,538.736,0.0
52454.0,STARLINK-3888,PAYLOAD,2023-12-15 16:34:11,15.08830924,0.0001364,53.2169,127.7921,89.6192,270.4957,-3.8574e-06,-3.49e-06,0.0,0 STARLINK-3888,1 52454U 22049D   23349.69041083 -.00000349  00000-0 -38574-5 0  9999,2 52454  53.2169 127.7921 0001364  89.6192 270.4957 15.08830924 89232,6917.908,95.438,540.717,538.83,0.0
52454.0,STARLINK-3888,PAYLOAD,2023-12-16 13:14:11,15.08830851,0.0001442,53.2169,123.927,103.0743,257.041,0.00029325,4.381e-05,0.0,0 STARLINK-3888,1 52454U 22049D   23350.55152485  .00004381  00000-0  29325-3 0  9995,2 52454  53.2169 123.9270 0001442 103.0743 257.0410 15.08830851 89208,6917.908,95.438,540.771,538.776,0.0
52454.0,STARLINK-3888,PAYLOAD,2023-12-16 16:24:57,15.08848288,0.0001346,53.2163,123.3332,79.8284,280.286,0.00017309,2.468e-05,0.0,0 STARLINK-3888,1 52454U 22049D   23350.68400124  .00002468  00000-0  17309-3 0  9998,2 52454  53.2163 123.3332 0001346  79.8284 280.2860 15.08848288 89387,6917.855,95.437,540.651,538.789,0.0
52454.0,STARLINK-3888,PAYLOAD,2023-12-17 14:40:22,15.08839026,0.000221,53.2169,119.1714,48.2431,311.875,9.0563e-05,1.153e-05,0.0,0 STARLINK-3888,1 52454U 22049D   23351.61137086  .00001153  00000-0  90563-4 0  9990,2 52454  53.2169 119.1714 0002210  48.2431 311.8750 15.08839026 89362,6917.883,95.438,541.277,538.22,0.0
52454.0,STARLINK-3888,PAYLOAD,2023-12-17 16:15:45,15.08831158,0.0001769,53.2174,118.8743,62.3244,297.7927,0.00036652,5.549e-05,0.0,0 STARLINK-3888,1 52454U 22049D   23351.67761380  .00005549  00000-0  36652-3 0  9997,2 52454  53.2174 118.8743 0001769  62.3244 297.7927 15.08831158 89538,6917.907,95.438,540.996,538.549,0.0
52454.0,STARLINK-3888,PAYLOAD,2023-12-18 14:31:08,15.08852647,0.0001661,53.2166,114.7097,72.0806,288.0368,0.00013462,1.856e-05,0.0,0 STARLINK-3888,1 52454U 22049D   23352.60495984  .00001856  00000-0  13462-3 0  9996,2 52454  53.2166 114.7097 0001661  72.0806 288.0368 15.08852647 89515,6917.842,95.437,540.856,538.558,0.0
52454.0,STARLINK-3888,PAYLOAD,2023-12-18 16:06:31,15.08856106,0.0001832,53.2171,114.4123,65.1851,294.9332,0.00020262,2.939e-05,0.0,0 STARLINK-3888,1 52454U 22049D   23352.67119862  .00002939  00000-0  20262-3 0  9990,2 52454  53.2171 114.4123 0001832  65.1851 294.9332 15.08856106 89680,6917.831,95.437,540.964,538.429,0.0
52454.0,STARLINK-3888,PAYLOAD,2023-12-19 14:21:55,15.0884517,0.0001877,53.217,110.2511,67.0098,293.1092,0.00010911,1.449e-05,0.0,0 STARLINK-3888,1 52454U 22049D   23353.59856295  .00001449  00000-0  10911-3 0  9995,2 52454  53.2170 110.2511 0001877  67.0098 293.1092 15.08845170 89668,6917.865,95.437,541.028,538.431,0.0
52454.0,STARLINK-3888,PAYLOAD,2023-12-20 11:01:57,15.08832137,0.0001628,53.2153,106.3926,105.5853,254.5319,-9.7333e-05,-1.836e-05,0.0,0 STARLINK-3888,1 52454U 22049D   23354.45968917 -.00001836  00000-0 -97333-4 0  9992,2 52454  53.2153 106.3926 0001628 105.5853 254.5319 15.08832137 89950,6917.904,95.438,540.896,538.643,0.0
